{
  "type": "FeatureCollection",
  "features": [
    {
      "type": "Feature",
      "properties": {
        "norad_id": 66642,
        "name": "STARLINK-35926",
        "group": "last-30-days",
        "lat": 46.09057295469149,
        "lon": -96.09576499713798,
        "alt_km": 343.93372211713813,
        "timestamp": "2025-12-07T11:27:48.741760+00:00",
        "meta_object_name": "STARLINK-35926",
        "meta_object_id": "2025-271AB",
        "meta_epoch": "2025-12-06T22:00:01.999584",
        "meta_mean_motion": 15.74594102,
        "meta_eccentricity": 8.932e-05,
        "meta_inclination": 53.1576,
        "meta_ra_of_asc_node": 215.5272,
        "meta_arg_of_pericenter": 79.3943,
        "meta_mean_anomaly": 44.9503,
        "meta_ephemeris_type": 0,
        "meta_classification_type": "U",
        "meta_norad_cat_id": 66642,
        "meta_element_set_no": 999,
        "meta_rev_at_epoch": 307,
        "meta_bstar": -0.010552019,
        "meta_mean_motion_dot": -0.01396237,
        "meta_mean_motion_ddot": 0,
        "tle_line1": "1 66642U 25271AB  25340.91668981 -.01396237  00000+0 -10552-1 0  9999",
        "tle_line2": "2 66642  53.1576 215.5272 0000893  79.3943  44.9503 15.74594102  3075"
      },
      "geometry": {
        "type": "Point",
        "coordinates": [
          -96.09576499713798,
          46.09057295469149
        ]
      }
    },
    {
      "type": "Feature",
      "properties": {
        "norad_id": 66643,
        "name": "STARLINK-35918",
        "group": "last-30-days",
        "lat": 44.06832293710776,
        "lon": -100.71167331456805,
        "alt_km": 344.0282338420275,
        "timestamp": "2025-12-07T11:27:48.741770+00:00",
        "meta_object_name": "STARLINK-35918",
        "meta_object_id": "2025-271AC",
        "meta_epoch": "2025-12-06T22:00:01.999584",
        "meta_mean_motion": 15.74597337,
        "meta_eccentricity": 0.00012356,
        "meta_inclination": 53.1576,
        "meta_ra_of_asc_node": 215.5356,
        "meta_arg_of_pericenter": 79.0845,
        "meta_mean_anomaly": 41.4228,
        "meta_ephemeris_type": 0,
        "meta_classification_type": "U",
        "meta_norad_cat_id": 66643,
        "meta_element_set_no": 999,
        "meta_rev_at_epoch": 330,
        "meta_bstar": -0.010557394,
        "meta_mean_motion_dot": -0.01397232,
        "meta_mean_motion_ddot": 0,
        "tle_line1": "1 66643U 25271AC  25340.91668981 -.01397232  00000+0 -10557-1 0  9991",
        "tle_line2": "2 66643  53.1576 215.5356 0001235  79.0845  41.4228 15.74597337  3303"
      },
      "geometry": {
        "type": "Point",
        "coordinates": [
          -100.71167331456805,
          44.06832293710776
        ]
      }
    },
    {
      "type": "Feature",
      "properties": {
        "norad_id": 66644,
        "name": "STARLINK-35938",
        "group": "last-30-days",
        "lat": 45.10193942272253,
        "lon": -98.44583643815847,
        "alt_km": 344.2445874357436,
        "timestamp": "2025-12-07T11:27:48.741781+00:00",
        "meta_object_name": "STARLINK-35938",
        "meta_object_id": "2025-271AD",
        "meta_epoch": "2025-12-06T22:00:01.999584",
        "meta_mean_motion": 15.74602024,
        "meta_eccentricity": 6.99e-05,
        "meta_inclination": 53.1572,
        "meta_ra_of_asc_node": 215.5312,
        "meta_arg_of_pericenter": 82.7774,
        "meta_mean_anomaly": 39.6482,
        "meta_ephemeris_type": 0,
        "meta_classification_type": "U",
        "meta_norad_cat_id": 66644,
        "meta_element_set_no": 999,
        "meta_rev_at_epoch": 330,
        "meta_bstar": -0.010642933,
        "meta_mean_motion_dot": -0.01407227,
        "meta_mean_motion_ddot": 0,
        "tle_line1": "1 66644U 25271AD  25340.91668981 -.01407227  00000+0 -10643-1 0  9994",
        "tle_line2": "2 66644  53.1572 215.5312 0000699  82.7774  39.6482 15.74602024  3308"
      },
      "geometry": {
        "type": "Point",
        "coordinates": [
          -98.44583643815847,
          45.10193942272253
        ]
      }
    },
    {
      "type": "Feature",
      "properties": {
        "norad_id": 66645,
        "name": "SHENZHOU-22",
        "group": "last-30-days",
        "lat": 41.446485202467606,
        "lon": 138.08974643275073,
        "alt_km": 385.4132149268462,
        "timestamp": "2025-12-07T11:27:48.741792+00:00",
        "meta_object_name": "SHENZHOU-22",
        "meta_object_id": "2025-272A",
        "meta_epoch": "2025-12-06T21:14:35.052288",
        "meta_mean_motion": 15.58811356,
        "meta_eccentricity": 0.00094534,
        "meta_inclination": 41.4683,
        "meta_ra_of_asc_node": 52.2413,
        "meta_arg_of_pericenter": 344.5349,
        "meta_mean_anomaly": 15.5199,
        "meta_ephemeris_type": 0,
        "meta_classification_type": "U",
        "meta_norad_cat_id": 66645,
        "meta_element_set_no": 999,
        "meta_rev_at_epoch": 26300,
        "meta_bstar": 0.00035334049,
        "meta_mean_motion_dot": 0.00027906,
        "meta_mean_motion_ddot": 0,
        "tle_line1": "1 66645U 25272A   25340.88512792  .00027906  00000+0  35334-3 0  9995",
        "tle_line2": "2 66645  41.4683  52.2413 0009453 344.5349  15.5199 15.58811356263009"
      },
      "geometry": {
        "type": "Point",
        "coordinates": [
          138.08974643275073,
          41.446485202467606
        ]
      }
    },
    {
      "type": "Feature",
      "properties": {
        "norad_id": 66646,
        "name": "CZ-2F R/B",
        "group": "last-30-days",
        "lat": -15.951234247091374,
        "lon": 23.53987541170002,
        "alt_km": 170.90417966052155,
        "timestamp": "2025-12-07T11:27:48.741802+00:00",
        "meta_object_name": "CZ-2F R/B",
        "meta_object_id": "2025-272B",
        "meta_epoch": "2025-12-06T20:55:41.021184",
        "meta_mean_motion": 16.34691308,
        "meta_eccentricity": 0.0038093,
        "meta_inclination": 41.4537,
        "meta_ra_of_asc_node": 46.5611,
        "meta_arg_of_pericenter": 222.6714,
        "meta_mean_anomaly": 137.119,
        "meta_ephemeris_type": 0,
        "meta_classification_type": "U",
        "meta_norad_cat_id": 66646,
        "meta_element_set_no": 999,
        "meta_rev_at_epoch": 189,
        "meta_bstar": 0.00045837,
        "meta_mean_motion_dot": 0.04803871,
        "meta_mean_motion_ddot": 7.8554e-06,
        "tle_line1": "1 66646U 25272B   25340.87200256  .04803871  78554-5  45837-3 0  9995",
        "tle_line2": "2 66646  41.4537  46.5611 0038093 222.6714 137.1190 16.34691308  1895"
      },
      "geometry": {
        "type": "Point",
        "coordinates": [
          23.53987541170002,
          -15.951234247091374
        ]
      }
    },
    {
      "type": "Feature",
      "properties": {
        "norad_id": 66647,
        "name": "COSMOS 2597 (RODNIK-S 22)",
        "group": "last-30-days",
        "lat": -6.535674527486273,
        "lon": -71.14785544214752,
        "alt_km": 1497.9409119415368,
        "timestamp": "2025-12-07T11:27:48.741814+00:00",
        "meta_object_name": "COSMOS 2597 (RODNIK-S 22)",
        "meta_object_id": "2025-273A",
        "meta_epoch": "2025-12-06T21:57:54.802368",
        "meta_mean_motion": 12.41951178,
        "meta_eccentricity": 0.00080235,
        "meta_inclination": 82.4981,
        "meta_ra_of_asc_node": 290.0662,
        "meta_arg_of_pericenter": 302.9826,
        "meta_mean_anomaly": 57.0481,
        "meta_ephemeris_type": 0,
        "meta_classification_type": "U",
        "meta_norad_cat_id": 66647,
        "meta_element_set_no": 999,
        "meta_rev_at_epoch": 141,
        "meta_bstar": 0.00012372964,
        "meta_mean_motion_dot": 2.7e-07,
        "meta_mean_motion_ddot": 0,
        "tle_line1": "1 66647U 25273A   25340.91521762  .00000027  00000+0  12373-3 0  9992",
        "tle_line2": "2 66647  82.4981 290.0662 0008023 302.9826  57.0481 12.41951178  1411"
      },
      "geometry": {
        "type": "Point",
        "coordinates": [
          -71.14785544214752,
          -6.535674527486273
        ]
      }
    },
    {
      "type": "Feature",
      "properties": {
        "norad_id": 66648,
        "name": "COSMOS 2598 (RODNIK-S 23)",
        "group": "last-30-days",
        "lat": 9.364781854072827,
        "lon": -69.03351747281023,
        "alt_km": 1497.4144354244481,
        "timestamp": "2025-12-07T11:27:48.741827+00:00",
        "meta_object_name": "COSMOS 2598 (RODNIK-S 23)",
        "meta_object_id": "2025-273B",
        "meta_epoch": "2025-12-06T21:53:20.641344",
        "meta_mean_motion": 12.42862084,
        "meta_eccentricity": 0.00072477,
        "meta_inclination": 82.5028,
        "meta_ra_of_asc_node": 290.0737,
        "meta_arg_of_pericenter": 265.3772,
        "meta_mean_anomaly": 94.648,
        "meta_ephemeris_type": 0,
        "meta_classification_type": "U",
        "meta_norad_cat_id": 66648,
        "meta_element_set_no": 999,
        "meta_rev_at_epoch": 141,
        "meta_bstar": -7.266063e-06,
        "meta_mean_motion_dot": 9e-08,
        "meta_mean_motion_ddot": 0,
        "tle_line1": "1 66648U 25273B   25340.91204446  .00000009  00000+0 -72661-5 0  9999",
        "tle_line2": "2 66648  82.5028 290.0737 0007247 265.3772  94.6480 12.42862084  1411"
      },
      "geometry": {
        "type": "Point",
        "coordinates": [
          -69.03351747281023,
          9.364781854072827
        ]
      }
    }
  ]
}